{"fetched_at":"2026-03-29T02:12:04Z","count":15717,"tles":[{"name":"STARLINK-32790","line1":"1 63048U 25034V   26087.50568733  .00030751  00000+0  10458-2 0  9990","line2":"2 63048  53.1593 171.0054 0001198  74.1971 285.9162 15.30207846 61966","category":"Starlink"}]}