{
  "norad_id": 63048,
  "name": "STARLINK-32790",
  "history": [
    {
      "epoch": "2026-03-28T12:08:11.385312",
      "apogee_km": 476.0130827487974,
      "perigee_km": 474.37020280654997,
      "latitude_deg": 43.88855766280094,
      "longitude_deg": 173.34598368010484,
      "semi_major_axis_km": 6853.328642777673,
      "eccentricity": 0.00011986,
      "inclination_deg": 53.1593,
      "raan_deg": 171.0054,
      "arg_perigee_deg": 74.1971,
      "mean_anomaly_deg": 285.9162,
      "mean_motion_rev_day": 15.30207846
    }
  ]
}